NIMIQ 2                 
1 27632U 02062A   26204.59067844 -.00000072  00000+0  00000+0 0  9995
2 27632   9.5268  56.5090 0005575  60.5690 287.6788  1.00273862 44547
ANIK F2                 
1 28378U 04027A   26204.51906470 -.00000048  00000+0  00000+0 0  9998
2 28378   3.3788  78.9589 0003747  36.7009 261.3255  1.00272291 41622
ANIK F1R                
1 28868U 05036A   26204.46295536 -.00000075  00000+0  00000+0 0  9991
2 28868   4.4027  76.1277 0003986  25.5158 258.9099  1.00272661 46819
ANIK F3                 
1 31102U 07009A   26204.51750469  .00000002  00000+0  00000+0 0  9994
2 31102   1.2887  83.4199 0002790  39.2875 246.1350  1.00273618 46921
NIMIQ 4                 
1 33373U 08044A   26204.52478472 -.00000215  00000+0  00000+0 0  9995
2 33373   0.0055  14.3897 0001929 115.7622 278.0081  1.00271041 65348
TELSTAR 11N             
1 34111U 09009A   26204.39104271 -.00000246  00000+0  00000+0 0  9990
2 34111   0.0586 256.3472 0002578 213.4867 294.5144  1.00271704 46600
TERRESTAR-1             
1 35496U 09035A   26204.51906470 -.00000056  00000+0  00000+0 0  9990
2 35496   5.1942  48.7589 0002535  68.6489 259.7121  1.00273266 62492
NIMIQ 5                 
1 35873U 09050A   26204.52660473 -.00000252  00000+0  00000+0 0  9995
2 35873   0.0607 257.2710 0002931 213.9662 306.9005  1.00271734 61701
SKYTERRA 1              
1 37218U 10061A   26204.52097138 -.00000118  00000+0  00000+0 0  9997
2 37218   5.2003  50.7883 0002811  27.7943 308.9062  1.00276508 57557
TELSTAR 14R             
1 37602U 11021A   26204.51897565  .00000034  00000+0  00000+0 0  9998
2 37602   0.1042  85.0353 0007949 294.5792   6.3745  0.98982132 56196
NIMIQ 6                 
1 38342U 12026A   26204.59423178 -.00000169  00000+0  00000+0 0  9999
2 38342   0.0546 262.6568 0003042 220.8096 300.6707  1.00271129 50773
ANIK G1                 
1 39127U 13014A   26204.51975803 -.00000069  00000+0  00000+0 0  9997
2 39127   0.0638 258.0539 0002151 229.3521 253.6572  1.00272085 48610
TELSTAR 12V             
1 41036U 15068A   26204.39537605 -.00000114  00000+0  00000+0 0  9991
2 41036   0.0132 337.3247 0002437 145.4042 305.7319  1.00273022 38980
VIASAT-2                
1 42740U 17029A   26204.52721140 -.00000260  00000+0  00000+0 0  9999
2 42740   0.0189 305.2495 0000552 197.5685 278.3189  1.00271830 33554
LEO 1 (LEO VANTAGE 1)   
1 43113U 18004C   26204.51147275  .00003829  00000+0  26723-3 0  9995
2 43113  99.2398 127.5483 0348688 328.1227  29.9286 14.68075865442811
TELSTAR 19V             
1 43562U 18059A   26204.52851141 -.00000275  00000+0  00000+0 0  9997
2 43562   0.0318 173.4316 0003183 315.2839 299.8049  1.00271177 29508
TELSTAR 18V             
1 43611U 18069A   26204.53656027 -.00000289  00000+0  00000+0 0  9995
2 43611   0.0152 314.2740 0002029 166.2558 151.8984  1.00270597 29000
AMOS-17                 
1 44479U 19050A   26204.54428481  .00000114  00000+0  00000+0 0  9997
2 44479   0.0238 333.4975 0001749 149.4206  31.2815  1.00271134 25550
